ONEWEB-0425             
1 51628U 22012G   26005.16073032  .00000570  00000+0  15965-2 0  9993
2 51628  87.8793  68.7605 0002090 108.2490 251.8865 13.10372789187971
ONEWEB-0428             
1 51629U 22012H   26005.14079890  .00000083  00000+0  20068-3 0  9990
2 51629  87.8786  68.7815 0001746 101.2165 258.9159 13.10375953187932
ONEWEB-0431             
1 51630U 22012J   26005.18712321 -.00000461  00000+0 -13558-2 0  9996
2 51630  87.8788  68.7543 0001056 102.9378 257.1868 13.10370127187994
ONEWEB-0434             
1 51631U 22012K   26005.16418833  .00000600  00000+0  16817-2 0  9990
2 51631  87.8780  68.7927 0002408 104.6589 255.4805 13.10371123187975
ONEWEB-0435             
1 51632U 22012L   26005.17233947  .00000567  00000+0  15867-2 0  9999
2 51632  87.8781  68.7812 0001616  88.6951 271.4361 13.10367361187967
ONEWEB-0436             
1 51633U 22012M   26005.32914161  .00000014  00000+0  23224-5 0  9997
2 51633  87.9095  38.2105 0001631  89.3971 270.7348 13.17650059192230
ONEWEB-0438             
1 51634U 22012N   26005.15575068  .00000530  00000+0  14813-2 0  9992
2 51634  87.8781  68.7855 0001898 104.9678 255.1659 13.10372634187997
ONEWEB-0439             
1 51635U 22012P   26005.15906620  .00000742  00000+0  20884-2 0  9995
2 51635  87.8785  68.7734 0001762  98.5187 261.6140 13.10372115187970
ONEWEB-0442             
1 51636U 22012Q   26005.32155108  .00000039  00000+0  67050-4 0  9999
2 51636  87.9085  38.2572 0002171 109.6192 250.5174 13.17648240192222
ONEWEB-0443             
1 51637U 22012R   26005.11314360 -.00000030  00000+0 -11052-3 0  9997
2 51637  87.9081  38.3032 0002104  93.2217 266.9155 13.17649366192245
ONEWEB-0444             
1 51638U 22012S   26005.14910564  .00000456  00000+0  12707-2 0  9996
2 51638  87.8786  68.7740 0001759  99.5319 260.6008 13.10374743187987
ONEWEB-0445             
1 51639U 22012T   26005.17066900  .00000532  00000+0  14879-2 0  9993
2 51639  87.8796  68.7408 0001714 108.4182 251.7132 13.10369097187995
ONEWEB-0446             
1 51640U 22012U   26005.14743965  .00000294  00000+0  80694-3 0  9999
2 51640  87.8785  68.7909 0001674 106.3900 253.7411 13.10375454187975
ONEWEB-0448             
1 51641U 22012V   26005.15242180  .00000550  00000+0  15400-2 0  9991
2 51641  87.8787  68.7889 0001759 100.3757 259.7568 13.10373686187944
ONEWEB-0449             
1 51642U 22012W   26005.15740596  .00000755  00000+0  21253-2 0  9996
2 51642  87.8786  68.7616 0002214 104.4517 255.6857 13.10372949187956
ONEWEB-0451             
1 51643U 22012X   26005.32576909  .00000091  00000+0  20115-3 0  9991
2 51643  87.9094  38.2063 0001903  96.0255 264.1093 13.17649799192216
ONEWEB-0452             
1 51644U 22012Y   26005.32406626  .00000076  00000+0  16333-3 0  9990
2 51644  87.9085  38.2591 0002073  92.8354 267.3015 13.17647957192220
