[{"OBJECT_NAME":"ONEWEB-0425","OBJECT_ID":"2022-012G","EPOCH":"2026-01-05T03:51:27.099648","MEAN_MOTION":13.10372789,"ECCENTRICITY":0.00020902,"INCLINATION":87.8793,"RA_OF_ASC_NODE":68.7605,"ARG_OF_PERICENTER":108.249,"MEAN_ANOMALY":251.8865,"EPHEMERIS_TYPE":0,"CLASSIFICATION_TYPE":"U","NORAD_CAT_ID":51628,"ELEMENT_SET_NO":999,"REV_AT_EPOCH":18797,"BSTAR":0.0015965056,"MEAN_MOTION_DOT":5.7e-6,"MEAN_MOTION_DDOT":0},{"OBJECT_NAME":"ONEWEB-0428","OBJECT_ID":"2022-012H","EPOCH":"2026-01-05T03:22:45.024960","MEAN_MOTION":13.10375953,"ECCENTRICITY":0.0001746,"INCLINATION":87.8786,"RA_OF_ASC_NODE":68.7815,"ARG_OF_PERICENTER":101.2165,"MEAN_ANOMALY":258.9159,"EPHEMERIS_TYPE":0,"CLASSIFICATION_TYPE":"U","NORAD_CAT_ID":51629,"ELEMENT_SET_NO":999,"REV_AT_EPOCH":18793,"BSTAR":0.00020068425,"MEAN_MOTION_DOT":8.3e-7,"MEAN_MOTION_DDOT":0},{"OBJECT_NAME":"ONEWEB-0431","OBJECT_ID":"2022-012J","EPOCH":"2026-01-05T04:29:27.445344","MEAN_MOTION":13.10370127,"ECCENTRICITY":0.0001056,"INCLINATION":87.8788,"RA_OF_ASC_NODE":68.7543,"ARG_OF_PERICENTER":102.9378,"MEAN_ANOMALY":257.1868,"EPHEMERIS_TYPE":0,"CLASSIFICATION_TYPE":"U","NORAD_CAT_ID":51630,"ELEMENT_SET_NO":999,"REV_AT_EPOCH":18799,"BSTAR":-0.001355843,"MEAN_MOTION_DOT":-4.61e-6,"MEAN_MOTION_DDOT":0},{"OBJECT_NAME":"ONEWEB-0434","OBJECT_ID":"2022-012K","EPOCH":"2026-01-05T03:56:25.871712","MEAN_MOTION":13.10371123,"ECCENTRICITY":0.00024086,"INCLINATION":87.878,"RA_OF_ASC_NODE":68.7927,"ARG_OF_PERICENTER":104.6589,"MEAN_ANOMALY":255.4805,"EPHEMERIS_TYPE":0,"CLASSIFICATION_TYPE":"U","NORAD_CAT_ID":51631,"ELEMENT_SET_NO":999,"REV_AT_EPOCH":18797,"BSTAR":0.0016816957,"MEAN_MOTION_DOT":6.0e-6,"MEAN_MOTION_DDOT":0},{"OBJECT_NAME":"ONEWEB-0435","OBJECT_ID":"2022-012L","EPOCH":"2026-01-05T04:08:10.130208","MEAN_MOTION":13.10367361,"ECCENTRICITY":0.00016165,"INCLINATION":87.8781,"RA_OF_ASC_NODE":68.7812,"ARG_OF_PERICENTER":88.6951,"MEAN_ANOMALY":271.4361,"EPHEMERIS_TYPE":0,"CLASSIFICATION_TYPE":"U","NORAD_CAT_ID":51632,"ELEMENT_SET_NO":999,"REV_AT_EPOCH":18796,"BSTAR":0.0015866962,"MEAN_MOTION_DOT":5.67e-6,"MEAN_MOTION_DDOT":0},{"OBJECT_NAME":"ONEWEB-0436","OBJECT_ID":"2022-012M","EPOCH":"2026-01-05T07:53:57.835104","MEAN_MOTION":13.17650059,"ECCENTRICITY":0.00016316,"INCLINATION":87.9095,"RA_OF_ASC_NODE":38.2105,"ARG_OF_PERICENTER":89.3971,"MEAN_ANOMALY":270.7348,"EPHEMERIS_TYPE":0,"CLASSIFICATION_TYPE":"U","NORAD_CAT_ID":51633,"ELEMENT_SET_NO":999,"REV_AT_EPOCH":19223,"BSTAR":2.322367e-6,"MEAN_MOTION_DOT":1.4e-7,"MEAN_MOTION_DDOT":0},{"OBJECT_NAME":"ONEWEB-0438","OBJECT_ID":"2022-012N","EPOCH":"2026-01-05T03:44:16.858752","MEAN_MOTION":13.10372634,"ECCENTRICITY":0.00018983,"INCLINATION":87.8781,"RA_OF_ASC_NODE":68.7855,"ARG_OF_PERICENTER":104.9678,"MEAN_ANOMALY":255.1659,"EPHEMERIS_TYPE":0,"CLASSIFICATION_TYPE":"U","NORAD_CAT_ID":51634,"ELEMENT_SET_NO":999,"REV_AT_EPOCH":18799,"BSTAR":0.0014813343,"MEAN_MOTION_DOT":5.3e-6,"MEAN_MOTION_DDOT":0},{"OBJECT_NAME":"ONEWEB-0439","OBJECT_ID":"2022-012P","EPOCH":"2026-01-05T03:49:03.319680","MEAN_MOTION":13.10372115,"ECCENTRICITY":0.0001762,"INCLINATION":87.8785,"RA_OF_ASC_NODE":68.7734,"ARG_OF_PERICENTER":98.5187,"MEAN_ANOMALY":261.614,"EPHEMERIS_TYPE":0,"CLASSIFICATION_TYPE":"U","NORAD_CAT_ID":51635,"ELEMENT_SET_NO":999,"REV_AT_EPOCH":18797,"BSTAR":0.0020883522,"MEAN_MOTION_DOT":7.42e-6,"MEAN_MOTION_DDOT":0},{"OBJECT_NAME":"ONEWEB-0442","OBJECT_ID":"2022-012Q","EPOCH":"2026-01-05T07:43:02.013312","MEAN_MOTION":13.1764824,"ECCENTRICITY":0.00021714,"INCLINATION":87.9085,"RA_OF_ASC_NODE":38.2572,"ARG_OF_PERICENTER":109.6192,"MEAN_ANOMALY":250.5174,"EPHEMERIS_TYPE":0,"CLASSIFICATION_TYPE":"U","NORAD_CAT_ID":51636,"ELEMENT_SET_NO":999,"REV_AT_EPOCH":19222,"BSTAR":6.7050289e-5,"MEAN_MOTION_DOT":3.9e-7,"MEAN_MOTION_DDOT":0},{"OBJECT_NAME":"ONEWEB-0443","OBJECT_ID":"2022-012R","EPOCH":"2026-01-05T02:42:55.607040","MEAN_MOTION":13.17649366,"ECCENTRICITY":0.0002104,"INCLINATION":87.9081,"RA_OF_ASC_NODE":38.3032,"ARG_OF_PERICENTER":93.2217,"MEAN_ANOMALY":266.9155,"EPHEMERIS_TYPE":0,"CLASSIFICATION_TYPE":"U","NORAD_CAT_ID":51637,"ELEMENT_SET_NO":999,"REV_AT_EPOCH":19224,"BSTAR":-0.00011052098,"MEAN_MOTION_DOT":-3.0e-7,"MEAN_MOTION_DDOT":0},{"OBJECT_NAME":"ONEWEB-0444","OBJECT_ID":"2022-012S","EPOCH":"2026-01-05T03:34:42.727296","MEAN_MOTION":13.10374743,"ECCENTRICITY":0.00017591,"INCLINATION":87.8786,"RA_OF_ASC_NODE":68.774,"ARG_OF_PERICENTER":99.5319,"MEAN_ANOMALY":260.6008,"EPHEMERIS_TYPE":0,"CLASSIFICATION_TYPE":"U","NORAD_CAT_ID":51638,"ELEMENT_SET_NO":999,"REV_AT_EPOCH":18798,"BSTAR":0.0012706577,"MEAN_MOTION_DOT":4.56e-6,"MEAN_MOTION_DDOT":0},{"OBJECT_NAME":"ONEWEB-0445","OBJECT_ID":"2022-012T","EPOCH":"2026-01-05T04:05:45.801600","MEAN_MOTION":13.10369097,"ECCENTRICITY":0.00017143,"INCLINATION":87.8796,"RA_OF_ASC_NODE":68.7408,"ARG_OF_PERICENTER":108.4182,"MEAN_ANOMALY":251.7132,"EPHEMERIS_TYPE":0,"CLASSIFICATION_TYPE":"U","NORAD_CAT_ID":51639,"ELEMENT_SET_NO":999,"REV_AT_EPOCH":18799,"BSTAR":0.0014878788,"MEAN_MOTION_DOT":5.32e-6,"MEAN_MOTION_DDOT":0},{"OBJECT_NAME":"ONEWEB-0446","OBJECT_ID":"2022-012U","EPOCH":"2026-01-05T03:32:18.785760","MEAN_MOTION":13.10375454,"ECCENTRICITY":0.00016749,"INCLINATION":87.8785,"RA_OF_ASC_NODE":68.7909,"ARG_OF_PERICENTER":106.39,"MEAN_ANOMALY":253.7411,"EPHEMERIS_TYPE":0,"CLASSIFICATION_TYPE":"U","NORAD_CAT_ID":51640,"ELEMENT_SET_NO":999,"REV_AT_EPOCH":18797,"BSTAR":0.00080694088,"MEAN_MOTION_DOT":2.94e-6,"MEAN_MOTION_DDOT":0},{"OBJECT_NAME":"ONEWEB-0448","OBJECT_ID":"2022-012V","EPOCH":"2026-01-05T03:39:29.243520","MEAN_MOTION":13.10373686,"ECCENTRICITY":0.00017598,"INCLINATION":87.8787,"RA_OF_ASC_NODE":68.7889,"ARG_OF_PERICENTER":100.3757,"MEAN_ANOMALY":259.7568,"EPHEMERIS_TYPE":0,"CLASSIFICATION_TYPE":"U","NORAD_CAT_ID":51641,"ELEMENT_SET_NO":999,"REV_AT_EPOCH":18794,"BSTAR":0.0015399624,"MEAN_MOTION_DOT":5.5e-6,"MEAN_MOTION_DDOT":0},{"OBJECT_NAME":"ONEWEB-0449","OBJECT_ID":"2022-012W","EPOCH":"2026-01-05T03:46:39.874944","MEAN_MOTION":13.10372949,"ECCENTRICITY":0.00022148,"INCLINATION":87.8786,"RA_OF_ASC_NODE":68.7616,"ARG_OF_PERICENTER":104.4517,"MEAN_ANOMALY":255.6857,"EPHEMERIS_TYPE":0,"CLASSIFICATION_TYPE":"U","NORAD_CAT_ID":51642,"ELEMENT_SET_NO":999,"REV_AT_EPOCH":18795,"BSTAR":0.0021252939,"MEAN_MOTION_DOT":7.55e-6,"MEAN_MOTION_DDOT":0},{"OBJECT_NAME":"ONEWEB-0451","OBJECT_ID":"2022-012X","EPOCH":"2026-01-05T07:49:06.449376","MEAN_MOTION":13.17649799,"ECCENTRICITY":0.00019036,"INCLINATION":87.9094,"RA_OF_ASC_NODE":38.2063,"ARG_OF_PERICENTER":96.0255,"MEAN_ANOMALY":264.1093,"EPHEMERIS_TYPE":0,"CLASSIFICATION_TYPE":"U","NORAD_CAT_ID":51643,"ELEMENT_SET_NO":999,"REV_AT_EPOCH":19221,"BSTAR":0.00020115468,"MEAN_MOTION_DOT":9.1e-7,"MEAN_MOTION_DDOT":0},{"OBJECT_NAME":"ONEWEB-0452","OBJECT_ID":"2022-012Y","EPOCH":"2026-01-05T07:46:39.324864","MEAN_MOTION":13.17647957,"ECCENTRICITY":0.00020737,"INCLINATION":87.9085,"RA_OF_ASC_NODE":38.2591,"ARG_OF_PERICENTER":92.8354,"MEAN_ANOMALY":267.3015,"EPHEMERIS_TYPE":0,"CLASSIFICATION_TYPE":"U","NORAD_CAT_ID":51644,"ELEMENT_SET_NO":999,"REV_AT_EPOCH":19222,"BSTAR":0.00016332998,"MEAN_MOTION_DOT":7.6e-7,"MEAN_MOTION_DDOT":0}]
